#aV2024  9 10  0  0  0.00000000     288 DD+AD WGS84 FIT  NGA
## 2331 172800.00000000   300.00000000 60563 0.0000000000000
+   31     2  3  4  5  6  7  8  9 10 11 12 13 14 15 16 17 18
+         19 20 21 22 23 24 25 26 27 28 29 30 31 32  0  0  0
+          0  0  0  0  0  0  0  0  0  0  0  0  0  0  0  0  0
+          0  0  0  0  0  0  0  0  0  0  0  0  0  0  0  0  0
+          0  0  0  0  0  0  0  0  0  0  0  0  0  0  0  0  0
++         2  2  2  2  2  2  2  2  2  2  2  2  2  2  2  2  2
++         2  2  2  2  2  2  2  2  2  2  2  2  2  2  0  0  0
++         0  0  0  0  0  0  0  0  0  0  0  0  0  0  0  0  0
++         0  0  0  0  0  0  0  0  0  0  0  0  0  0  0  0  0
++         0  0  0  0  0  0  0  0  0  0  0  0  0  0  0  0  0
%c cc cc ccc ccc cccc cccc cccc cccc ccccc ccccc ccccc ccccc
%c cc cc ccc ccc cccc cccc cccc cccc ccccc ccccc ccccc ccccc
%f  0.0000000  0.000000000  0.00000000000  0.000000000000000
%f  0.0000000  0.000000000  0.00000000000  0.000000000000000
%i    0    0    0    0      0      0      0      0         0
%i    0    0    0    0      0      0      0      0         0
/*      NGA, ST. LOUIS,MO.                                  
/*   EPHEMERIS COMPUTED FROM 2 DAYS OF DATA                 
/*   EPOCHA v9 SMOOTHER                                     
/*   G2296 IERS2010 SATIGS SATAPC                           
*  2024  9 10 17  0  0.00000000
P  2 -14167.158522  18802.612466  12436.005942   -360.878483                    
V  2   1905.646301 -15212.907287  26488.006348      0.079059                    
P  3 -18533.514469  12623.819519 -14313.102904    532.925670                    
V  3 -17904.917321   1323.139899  24745.134630      0.135869                    
P  4  -8508.796420  13207.975320 -21381.550312    441.125020                    
V  4 -17023.928007 -21207.884292  -6462.106694      0.071588                    
P  5  26132.506389  -4852.414271  -1191.621200   -186.142235                    
V  5   -751.878124   2596.008195 -31923.546306     -0.012558                    
P  6   8061.913576  15391.625077 -19990.225801     40.050179                    
V  6 -10124.250892  23405.102324  13993.488124     -0.257982                    
P  7  -4888.948433  25274.308357   5980.679263    -39.535950                    
V  7  -5580.854671   5424.371519 -30590.440864      0.047133                    
P  8 -17052.779410   2484.052539  20206.367859    347.792056                    
V  8 -16456.990390 -19930.008411 -10947.049698      0.131950                    
P  9   2048.476372  20438.606444 -16895.659313    350.839546                    
V  9 -15339.172560 -14901.933702 -20052.855809      0.159779                    
P 10 -13514.889262 -11324.606172  20181.195048   -120.958859                    
V 10  24548.116028  -4718.686211  13613.304285     -0.121288                    
P 11  15801.329041    468.636263 -21304.301321   -733.011078                    
V 11 -10104.513770  25168.250611  -6995.862271     -0.044287                    
P 12  21617.350184 -10315.478938 -11705.053700   -537.044551                    
V 12  14609.727158    911.468982  26864.426676     -0.028251                    
P 13  18459.284568   7318.655988  17529.578318    675.747792                    
V 13  10556.874467  20018.768417 -18995.634456      0.020261                    
P 14   9333.752244  13816.794490  20762.542201    492.528643                    
V 14 -25889.719880   4533.024283   8417.405855      0.085769                    
P 15  16403.810680  -4949.327436  19818.233266    202.725882                    
V 15  18897.316174  18425.093220 -10595.893124      0.043787                    
P 16 -26389.338660  -1284.868515  -4832.371877   -184.661013                    
V 16   5435.917334  -2774.707356 -30692.234368      0.102179                    
P 17  13194.384682  22681.747770   3882.349207    630.768615                    
V 17  -4773.986834  -2004.800674  31503.753446     -0.110491                    
P 18   5414.559648 -25136.784482   6190.009604   -652.508878                    
V 18   5180.229878  -6416.084681 -30898.263381     -0.023637                    
P 19  17427.366478  19678.388487  -5313.052324    536.306348                    
V 19   1743.783496   6602.608887  30663.409205      0.049566                    
P 20  23693.401994    339.509251 -11773.753054    370.778095                    
V 20 -13337.714801   7606.206518 -26615.771383     -0.003861                    
P 21 -15663.222994  13197.989498  16703.738001    102.007425                    
V 21   3217.852940 -20758.829857  20949.704426     -0.007203                    
P 22  16668.992988  11136.247879  17683.530444    -60.492801                    
V 22 -21569.842881   3391.907444  18927.163293     -0.038098                    
P 23    897.955640 -15088.732985  21844.619294    317.162351                    
V 23  27202.613035  -4911.308284  -4729.392924      0.084358                    
P 24  14481.532373 -17598.941931  12848.927632   -486.766036                    
V 24  -1209.164628  17529.656108  24942.826044      0.001646                    
P 25  10320.574912 -15747.203984 -18973.234205    499.597817                    
V 25  23406.581415  -2740.917817  15541.425053      0.000647                    
P 26 -20746.850238  -6694.270720 -15581.120866     81.893550                    
V 26  18270.422319  -7032.222041 -21148.038646     -0.083782                    
P 27 -20528.826111  -8806.006011  14393.282934    -33.790069                    
V 27 -10490.806782 -15499.717166 -23544.148090     -0.001832                    
P 28  -7722.472728 -17439.856354 -18495.686495   -406.162088                    
V 28   8905.950535 -21751.886471  16804.954876     -0.140443                    
P 29   2171.150825 -18933.694481 -18491.165162   -578.724836                    
V 29  14643.519209  18320.956715 -17200.414104      0.024218                    
P 30   3178.545878  22007.733426  14475.934228   -323.833415                    
V 30  -9009.239888  16171.120154 -23110.083865      0.070929                    
P 31 -14533.242504  -5282.726865 -21828.294765   -224.860250                    
V 31  10194.755264 -25206.304770   -315.321798      0.004553                    
P 32 -15606.192284 -21483.940231   2717.994461   -598.425394                    
V 32   3995.333626    781.028832  31417.397158      0.035173                    
EOF
